COSMOS 2419 (714)       
1 28915U 05050A   16199.22578272 -.00000016  00000-0  00000+0 0  9993
2 28915  65.3343  77.1501 0016269 354.2853 149.0897  2.13110853 82198
COSMOS 2425 (716)       
1 29670U 06062A   16199.54208060 -.00000050  00000-0  10000-3 0  9999
2 29670  65.6210 316.1354 0020020 348.0592  94.9428  2.13104948 74407
COSMOS 2426 (717)       
1 29671U 06062B   16200.03063449 -.00000046  00000-0  10000-3 0  9992
2 29671  65.6378 316.2012 0018444 162.1468 156.3448  2.13102918 74410
COSMOS 2424 (715)       
1 29672U 06062C   16199.37462402 -.00000051  00000-0  10000-3 0  9995
2 29672  65.6220 316.1508 0017883 161.6241 189.8434  2.13102339 74395
COSMOS 2433 (720)       
1 32275U 07052A   16199.45353274 -.00000014  00000-0  10000-3 0  9992
2 32275  65.3499  76.9135 0001767 294.9583 272.1599  2.13104711 67917
COSMOS 2432 (719)       
1 32276U 07052B   16199.47398593 -.00000014  00000-0  10000-3 0  9998
2 32276  65.3626  76.9787 0012293 342.7336 193.8356  2.13104237 67910
COSMOS 2434 (721)       
1 32393U 07065A   16199.38915024 -.00000051  00000-0  00000+0 0  9992
2 32393  65.2380 315.4483 0005445 116.9403 292.5901  2.13102856 66622
COSMOS 2436 (723)       
1 32395U 07065C   16200.22350844 -.00000045  00000-0  10000-3 0  9991
2 32395  65.2518 315.4635 0015763 357.7720  63.8739  2.13102912 66572
COSMOS 2443 (725)       
1 33379U 08046B   16199.46642052 -.00000014  00000-0  10000-3 0  9998
2 33379  65.2792  76.3270 0016486 182.2710 299.4657  2.13101304 60787
COSMOS 2456 (730)       
1 36111U 09070A   16200.51654816  .00000086  00000-0  00000+0 0  9996
2 36111  64.1832 194.9921 0006515 295.6438  68.4807  2.13102938 51319
COSMOS 2457 (733)       
1 36112U 09070B   16200.45216829  .00000086  00000-0  00000+0 0  9998
2 36112  64.1648 194.9203 0006840 190.6034 254.2348  2.13101615 51311
COSMOS 2458 (734)       
1 36113U 09070C   16198.50933326  .00000096  00000-0  10000-3 0  9995
2 36113  64.1699 194.9934 0002705 291.8443 150.0907  2.13101963 51278
COSMOS 2459 (731)       
1 36400U 10007A   16199.31904163 -.00000015  00000-0  10000-3 0  9995
2 36400  65.2582  76.0663 0028990 355.1018 333.9387  2.13102357 49634
COSMOS 2461 (735)       
1 36401U 10007B   16199.62938631 -.00000012  00000-0  10000-3 0  9994
2 36401  65.2520  76.0357 0007497  66.1872  51.5187  2.13102485 49647
COSMOS 2460 (732)       
1 36402U 10007C   16198.77704652 -.00000020  00000-0  10000-3 0  9993
2 36402  65.2413  76.0407 0001459  42.2322 183.3923  2.13101863 49621
COSMOS 2465 (737)       
1 37138U 10041B   16200.52382667 -.00000043  00000-0  00000+0 0  9993
2 37138  64.8383 315.5670 0036312 169.3333  74.4735  2.13093900 45732
COSMOS 2464 (736)       
1 37139U 10041C   16200.44600032 -.00000044  00000-0  00000+0 0  9995
2 37139  64.8444 315.5654 0021747  15.9380 352.0731  2.13102638 45748
COSMOS 2471 (701K)      
1 37372U 11009A   16200.37478953 -.00000006  00000-0  00000+0 0  9994
2 37372  65.2400  75.9366 0006722 235.5129 268.5318  2.13102747 41938
COSMOS 2474 (742)       
1 37829U 11055A   16198.76906588  .00000096  00000-0  00000-0 0  9990
2 37829  64.5073 195.4764 0010836 254.1603  70.6366  2.13101947 37265
COSMOS 2476 (744)       
1 37867U 11064A   16198.76270315  .00000096  00000-0  00000-0 0  9994
2 37867  64.4873 195.5573 0019778 248.5148 117.2499  2.13102033 36629
COSMOS 2477 (745)       
1 37868U 11064B   16198.66995154  .00000097  00000-0  00000-0 0  9990
2 37868  64.4953 195.6017 0017767 250.0582 223.8363  2.13101897 36574
COSMOS 2475 (743)       
1 37869U 11064C   16198.73657588  .00000096  00000-0  00000-0 0  9994
2 37869  64.5033 195.5874 0023097 273.4071 207.7428  2.13102094 36584
COSMOS 2485 (747)       
1 39155U 13019A   16200.13617248  .00000089  00000-0  00000+0 0  9994
2 39155  64.6569 195.4676 0019991 243.7432 140.8214  2.13102087 25127
COSMOS 2492 (754)       
1 39620U 14012A   16199.27186859 -.00000016  00000-0  10000-3 0  9992
2 39620  65.1294  76.0089 0015468 338.4181 136.3959  2.13103669 18052
COSMOS 2500 (755)       
1 40001U 14032A   16199.60713911 -.00000013  00000-0  00000+0 0  9993
2 40001  65.0709  76.0195 0004673 200.7945  34.9284  2.13103018 16274
COSMOS 2501 (702K)      
1 40315U 14075A   16198.66932530 -.00000057  00000-0  00000-0 0  9992
2 40315  64.6100 317.0756 0017323 230.8388 166.4977  2.13101617 12666
COSMOS 2514 (751)       
1 41330U 16008A   16198.41375369 -.00000025  00000-0  00000-0 0  9997
2 41330  64.8688  76.2882 0007729 214.1648   5.1370  2.13103571  3414
COSMOS 2516 (753)       
1 41554U 16032A   16199.61890442 -.00000051  00000-0  00000+0 0  9997
2 41554  64.7912 316.7261 0011383 216.2224 102.3440  2.13101514  1048
